NORAD_CAT_ID,OBJECT_NAME,OBJECT_TYPE,EPOCH,MEAN_MOTION,ECCENTRICITY,INCLINATION,RA_OF_ASC_NODE,ARG_OF_PERICENTER,MEAN_ANOMALY,BSTAR,MEAN_MOTION_DOT,MEAN_MOTION_DDOT,TLE_LINE0,TLE_LINE1,TLE_LINE2,SEMIMAJOR_AXIS,PERIOD,APOGEE,PERIGEE,DECAYED
53016.0,STARLINK-4283,PAYLOAD,2024-07-05 12:09:58,15.0884031,0.0001346,53.2178,312.32,100.3679,259.7464,5.0609e-05,5.18e-06,0.0,0 STARLINK-4283,1 53016U 22076AG  24187.50692704  .00000518  00000-0  50609-4 0  9995,2 53016  53.2178 312.3200 0001346 100.3679 259.7464 15.08840310111037,6917.879,95.438,540.676,538.813,0.0
53016.0,STARLINK-4283,PAYLOAD,2024-07-05 13:45:21,15.08842601,0.0001392,53.2175,312.0222,100.1308,259.9841,5.8577e-05,6.45e-06,0.0,0 STARLINK-4283,1 53016U 22076AG  24187.57316536  .00000645  00000-0  58577-4 0  9991,2 53016  53.2175 312.0222 0001392 100.1308 259.9841 15.08842601110577,6917.872,95.437,540.7,538.774,0.0
53016.0,STARLINK-4283,PAYLOAD,2024-07-05 15:20:44,15.0884391,0.000131,53.2179,311.7286,93.527,266.5872,0.00010816,1.434e-05,0.0,0 STARLINK-4283,1 53016U 22076AG  24187.63940351  .00001434  00000-0  10816-3 0  9996,2 53016  53.2179 311.7286 0001310  93.5270 266.5872 15.08843910110583,6917.868,95.437,540.64,538.827,0.0
53016.0,STARLINK-4283,PAYLOAD,2024-07-06 12:00:46,15.08832712,0.000138,53.2184,307.8624,101.3432,258.7716,-1.0264e-05,-4.51e-06,0.0,0 STARLINK-4283,1 53016U 22076AG  24188.50053416 -.00000451  00000-0 -10264-4 0  9998,2 53016  53.2184 307.8624 0001380 101.3432 258.7716 15.08832712111181,6917.903,95.438,540.722,538.813,0.0
53016.0,STARLINK-4283,PAYLOAD,2024-07-06 13:36:09,15.08833988,0.0001469,53.2192,307.5665,105.233,254.8824,1.6376e-05,-2.7e-07,0.0,0 STARLINK-4283,1 53016U 22076AG  24188.56677210 -.00000027  00000-0  16376-4 0  9996,2 53016  53.2192 307.5665 0001469 105.2330 254.8824 15.08833988110722,6917.899,95.438,540.78,538.748,0.0
53016.0,STARLINK-4283,PAYLOAD,2024-07-06 15:11:32,15.08835474,0.0001455,53.219,307.2687,104.0911,256.0243,1.2978e-05,-8.1e-07,0.0,0 STARLINK-4283,1 53016U 22076AG  24188.63301215 -.00000081  00000-0  12978-4 0  9997,2 53016  53.2190 307.2687 0001455 104.0911 256.0243 15.08835474110730,6917.894,95.438,540.766,538.753,0.0
53016.0,STARLINK-4283,PAYLOAD,2024-07-07 00:43:50,15.08839654,0.0001442,53.219,305.4842,101.2534,258.862,3.5869e-05,2.83e-06,0.0,0 STARLINK-4283,1 53016U 22076AG  24189.03044946  .00000283  00000-0  35869-4 0  9994,2 53016  53.2190 305.4842 0001442 101.2534 258.8620 15.08839654111261,6917.881,95.438,540.744,538.749,0.0
53016.0,STARLINK-4283,PAYLOAD,2024-07-08 13:17:42,15.08845142,0.0001482,53.2183,298.6428,90.9419,269.1743,8.5197e-05,1.068e-05,0.0,0 STARLINK-4283,1 53016U 22076AG  24190.55396673  .00001068  00000-0  85197-4 0  9991,2 53016  53.2183 298.6428 0001482  90.9419 269.1743 15.08845142111491,6917.865,95.437,540.755,538.704,0.0
53016.0,STARLINK-4283,PAYLOAD,2024-07-09 13:08:30,15.08834516,0.0001254,53.2159,294.1806,87.1053,273.0082,5.2226e-05,5.43e-06,0.0,0 STARLINK-4283,1 53016U 22076AG  24191.54757414  .00000543  00000-0  52226-4 0  9999,2 53016  53.2159 294.1806 0001254  87.1053 273.0082 15.08834516111644,6917.897,95.438,540.63,538.895,0.0
53016.0,STARLINK-4283,PAYLOAD,2024-07-10 12:59:17,15.08842102,0.0001455,53.2168,289.7183,99.6733,260.4424,-3.6615e-05,-8.71e-06,0.0,0 STARLINK-4283,1 53016U 22076AG  24192.54117227 -.00000871  00000-0 -36615-4 0  9992,2 53016  53.2168 289.7183 0001455  99.6733 260.4424 15.08842102111323,6917.874,95.437,540.746,538.732,0.0
53016.0,STARLINK-4283,PAYLOAD,2024-07-10 16:10:03,15.08843556,0.0001482,53.2167,289.1235,100.5071,259.6088,-2.3614e-05,-6.64e-06,0.0,0 STARLINK-4283,1 53016U 22076AG  24192.67365079 -.00000664  00000-0 -23614-4 0  9991,2 53016  53.2167 289.1235 0001482 100.5071 259.6088 15.08843556111815,6917.87,95.437,540.76,538.709,0.0
53016.0,STARLINK-4283,PAYLOAD,2024-07-11 12:50:03,15.08847338,0.0001546,53.217,285.2576,101.9222,258.1943,8.6979e-05,1.097e-05,0.0,0 STARLINK-4283,1 53016U 22076AG  24193.53476564  .00001097  00000-0  86979-4 0  9991,2 53016  53.2170 285.2576 0001546 101.9222 258.1943 15.08847338111476,6917.858,95.437,540.792,538.653,0.0
53016.0,STARLINK-4283,PAYLOAD,2024-07-12 12:40:51,15.08840367,0.0001463,53.217,280.7965,99.658,260.4577,8.968e-05,1.14e-05,0.0,0 STARLINK-4283,1 53016U 22076AG  24194.52837063  .00001140  00000-0  89680-4 0  9997,2 53016  53.2170 280.7965 0001463  99.6580 260.4577 15.08840367112099,6917.879,95.438,540.756,538.732,0.0
53016.0,STARLINK-4283,PAYLOAD,2024-07-12 22:13:10,15.08841369,0.0001406,53.2171,279.0138,98.0686,262.0466,4.7523e-05,4.68e-06,0.0,0 STARLINK-4283,1 53016U 22076AG  24194.92581079  .00000468  00000-0  47523-4 0  9996,2 53016  53.2171 279.0138 0001406  98.0686 262.0466 15.08841369111682,6917.876,95.437,540.714,538.769,0.0
53016.0,STARLINK-4283,PAYLOAD,2024-07-13 12:31:38,15.08842845,0.000174,53.2178,276.3425,101.9063,258.2124,-1.4031e-05,-5.11e-06,0.0,0 STARLINK-4283,1 53016U 22076AG  24195.52197274 -.00000511  00000-0 -14031-4 0  9992,2 53016  53.2178 276.3425 0001740 101.9063 258.2124 15.08842845111770,6917.872,95.437,540.94,538.533,0.0
53016.0,STARLINK-4283,PAYLOAD,2024-07-13 22:03:57,15.08840258,0.0001331,53.217,274.5585,104.055,256.059,-7.0024e-05,-1.402e-05,0.0,0 STARLINK-4283,1 53016U 22076AG  24195.91941575 -.00001402  00000-0 -70024-4 0  9990,2 53016  53.2170 274.5585 0001331 104.0550 256.0590 15.08840258111836,6917.88,95.438,540.665,538.824,0.0
53016.0,STARLINK-4283,PAYLOAD,2024-07-14 04:25:29,15.08897906,9.77e-05,53.2163,273.3683,109.0612,251.0486,-0.00076263,-0.00012424,0.0,0 STARLINK-4283,1 53016U 22076AG  24196.18437019 -.00012424  00000-0 -76263-3 0  9999,2 53016  53.2163 273.3683 0000977 109.0612 251.0486 15.08897906112341,6917.703,95.434,540.244,538.893,0.0
53016.0,STARLINK-4283,PAYLOAD,2024-07-14 12:22:26,15.08833235,0.0001236,53.2162,271.8806,94.1977,265.9157,3.2683e-05,2.32e-06,0.0,0 STARLINK-4283,1 53016U 22076AG  24196.51557944  .00000232  00000-0  32683-4 0  9997,2 53016  53.2162 271.8806 0001236  94.1977 265.9157 15.08833235112396,6917.901,95.438,540.621,538.911,0.0
53016.0,STARLINK-4283,PAYLOAD,2024-07-15 12:13:12,15.08847111,0.0001224,53.2159,267.4183,85.9223,274.1909,0.00010038,1.31e-05,0.0,0 STARLINK-4283,1 53016U 22076AG  24197.50917039  .00001310  00000-0  10038-3 0  9999,2 53016  53.2159 267.4183 0001224  85.9223 274.1909 15.08847111112542,6917.859,95.437,540.57,538.877,0.0
53016.0,STARLINK-4283,PAYLOAD,2024-07-15 21:45:31,15.08841518,0.0001189,53.2152,265.6326,84.3593,275.7535,7.8569e-05,9.63e-06,0.0,0 STARLINK-4283,1 53016U 22076AG  24197.90661303  .00000963  00000-0  78569-4 0  9990,2 53016  53.2152 265.6326 0001189  84.3593 275.7535 15.08841518112139,6917.876,95.437,540.563,538.918,0.0
53016.0,STARLINK-4283,PAYLOAD,2024-07-16 12:03:59,15.08840201,0.0001497,53.2164,262.9555,103.9313,256.1846,5.3894e-05,5.7e-06,0.0,0 STARLINK-4283,1 53016U 22076AG  24198.50277548  .00000570  00000-0  53894-4 0  9999,2 53016  53.2164 262.9555 0001497 103.9313 256.1846 15.08840201112222,6917.88,95.438,540.78,538.709,0.0
53016.0,STARLINK-4283,PAYLOAD,2024-07-17 03:57:50,15.08852217,0.0001384,53.2155,259.9834,90.0562,270.0589,0.00010854,1.44e-05,0.0,0 STARLINK-4283,1 53016U 22076AG  24199.16516414  .00001440  00000-0  10854-3 0  9995,2 53016  53.2155 259.9834 0001384  90.0562 270.0589 15.08852217112796,6917.843,95.437,540.665,538.751,0.0
53016.0,STARLINK-4283,PAYLOAD,2024-07-17 10:19:22,15.08853522,0.0001383,53.2157,258.794,90.0667,270.0484,0.00011994,1.622e-05,0.0,0 STARLINK-4283,1 53016U 22076AG  24199.43012157  .00001622  00000-0  11994-3 0  9998,2 53016  53.2157 258.7940 0001383  90.0667 270.0484 15.08853522112365,6917.839,95.437,540.661,538.747,0.0
53016.0,STARLINK-4283,PAYLOAD,2024-07-18 10:10:10,15.08834037,0.00013,53.2157,254.3327,98.844,261.27,5.5491e-05,5.95e-06,0.0,0 STARLINK-4283,1 53016U 22076AG  24200.42373771  .00000595  00000-0  55491-4 0  9991,2 53016  53.2157 254.3327 0001300  98.8440 261.2700 15.08834037112981,6917.899,95.438,540.663,538.864,0.0
53016.0,STARLINK-4283,PAYLOAD,2024-07-19 10:00:57,15.08844789,0.0001528,53.2162,249.8711,102.7788,257.3375,-3.5832e-05,-8.58e-06,0.0,0 STARLINK-4283,1 53016U 22076AG  24201.41733556 -.00000858  00000-0 -35832-4 0  9993,2 53016  53.2162 249.8711 0001528 102.7788 257.3375 15.08844789113132,6917.866,95.437,540.788,538.674,0.0
53016.0,STARLINK-4283,PAYLOAD,2024-07-20 03:30:12,15.08829889,0.0001608,53.2164,246.6014,102.1252,257.9921,0.00013695,1.892e-05,0.0,0 STARLINK-4283,1 53016U 22076AG  24202.14598331  .00001892  00000-0  13695-3 0  9993,2 53016  53.2164 246.6014 0001608 102.1252 257.9921 15.08829889113243,6917.911,95.438,540.889,538.664,0.0
53016.0,STARLINK-4283,PAYLOAD,2024-07-20 09:51:45,15.0883261,0.0001523,53.2159,245.4125,99.4119,260.7046,0.00015853,2.235e-05,0.0,0 STARLINK-4283,1 53016U 22076AG  24202.41094378  .00002235  00000-0  15853-3 0  9995,2 53016  53.2159 245.4125 0001523  99.4119 260.7046 15.08832610112811,6917.903,95.438,540.822,538.714,0.0
53016.0,STARLINK-4283,PAYLOAD,2024-07-20 19:24:04,15.08835246,0.0001524,53.2157,243.6282,99.2152,260.9012,0.00016765,2.381e-05,0.0,0 STARLINK-4283,1 53016U 22076AG  24202.80838494  .00002381  00000-0  16765-3 0  9998,2 53016  53.2157 243.6282 0001524  99.2152 260.9012 15.08835246112878,6917.895,95.438,540.814,538.706,0.0
53016.0,STARLINK-4283,PAYLOAD,2024-07-21 09:42:32,15.0884005,0.0001556,53.2164,240.9524,99.6298,260.487,0.0001066,1.409e-05,0.0,0 STARLINK-4283,1 53016U 22076AG  24203.40454446  .00001409  00000-0  10660-3 0  9994,2 53016  53.2164 240.9524 0001556  99.6298 260.4870 15.08840050113434,6917.88,95.438,540.822,538.669,0.0
53016.0,STARLINK-4283,PAYLOAD,2024-07-22 12:44:05,15.0884293,0.0001529,53.2162,235.8953,94.216,265.9007,0.00010636,1.405e-05,0.0,0 STARLINK-4283,1 53016U 22076AG  24204.53062423  .00001405  00000-0  10636-3 0  9998,2 53016  53.2162 235.8953 0001529  94.2160 265.9007 15.08842930113600,6917.871,95.437,540.794,538.679,0.0
